{
    "links": {
        "self": "http://www.neowsapp.com/rest/v1/neo/3787061?api_key=iIulBulltgU6a56xZRHN4H3l9WmuAYTsLGpBGhQ2"
    },
    "id": "3787061",
    "neo_reference_id": "3787061",
    "name": "(2017 TS6)",
    "designation": "2017 TS6",
    "nasa_jpl_url": "http://ssd.jpl.nasa.gov/sbdb.cgi?sstr=3787061",
    "absolute_magnitude_h": 28.2,
    "estimated_diameter": {
        "kilometers": {
            "estimated_diameter_min": 0.0060891262,
            "estimated_diameter_max": 0.0136157002
        },
        "meters": {
            "estimated_diameter_min": 6.0891262211,
            "estimated_diameter_max": 13.6157001539
        },
        "miles": {
            "estimated_diameter_min": 0.0037836064,
            "estimated_diameter_max": 0.0084604012
        },
        "feet": {
            "estimated_diameter_min": 19.9774488711,
            "estimated_diameter_max": 44.6709336928
        }
    },
    "is_potentially_hazardous_asteroid": false,
    "close_approach_data": [
        {
            "close_approach_date": "2017-10-14",
            "close_approach_date_full": "2017-Oct-14 18:19",
            "epoch_date_close_approach": 1508005140000,
            "relative_velocity": {
                "kilometers_per_second": "6.5718471101",
                "kilometers_per_hour": "23658.6495961984",
                "miles_per_hour": "14700.5648004823"
            },
            "miss_distance": {
                "astronomical": "0.0294987338",
                "lunar": "11.4750074482",
                "kilometers": "4412947.744177006",
                "miles": "2742078.5763584428"
            },
            "orbiting_body": "Earth"
        }
    ],
    "orbital_data": {
        "orbit_id": "1",
        "orbit_determination_date": "2017-10-18 17:42:07",
        "first_observation_date": "2017-10-15",
        "last_observation_date": "2017-10-18",
        "data_arc_in_days": 3,
        "observations_used": 17,
        "orbit_uncertainty": "8",
        "minimum_orbit_intersection": ".0294683",
        "jupiter_tisserand_invariant": "3.486",
        "epoch_osculation": "2458042.5",
        "eccentricity": ".5287879060844385",
        "semi_major_axis": "2.178426554488909",
        "inclination": "1.983245648690009",
        "ascending_node_longitude": "19.37303477019323",
        "orbital_period": "1174.391259551661",
        "perihelion_distance": "1.026500938181981",
        "perihelion_argument": "4.15132397360974",
        "aphelion_distance": "3.330352170795837",
        "perihelion_time": "2458043.131884010272",
        "mean_anomaly": "359.8063011438073",
        "mean_motion": ".306541790967888",
        "equinox": "J2000",
        "orbit_class": {
            "orbit_class_type": "AMO",
            "orbit_class_description": "Near-Earth asteroid orbits similar to that of 1221 Amor",
            "orbit_class_range": "1.017 AU < q (perihelion) < 1.3 AU"
        }
    },
    "is_sentry_object": false
}